{"fetched_at":"2026-07-15T06:36:25.772Z","source":"https://celestrak.org/NORAD/elements/gp.php?NAME=SPACEMOBILE&FORMAT=JSON","constellation":"ast-spacemobile","records":[{"OBJECT_NAME":"SPACEMOBILE-003","OBJECT_ID":"2024-163A","EPOCH":"2026-07-14T11:46:11.481024","CLASSIFICATION_TYPE":"U","MEAN_MOTION":15.20702842,"ECCENTRICITY":0.000471,"INCLINATION":52.9669,"RA_OF_ASC_NODE":183.8848,"ARG_OF_PERICENTER":191.1614,"MEAN_ANOMALY":168.9277,"EPHEMERIS_TYPE":0,"NORAD_CAT_ID":61045,"ELEMENT_SET_NO":999,"REV_AT_EPOCH":10192,"BSTAR":0.000039467,"MEAN_MOTION_DOT":0.00000552,"MEAN_MOTION_DDOT":0},{"OBJECT_NAME":"SPACEMOBILE-005","OBJECT_ID":"2024-163B","EPOCH":"2026-07-14T09:47:43.181952","CLASSIFICATION_TYPE":"U","MEAN_MOTION":15.20719732,"ECCENTRICITY":0.00086722,"INCLINATION":52.9761,"RA_OF_ASC_NODE":184.2104,"ARG_OF_PERICENTER":193.5101,"MEAN_ANOMALY":166.5662,"EPHEMERIS_TYPE":0,"NORAD_CAT_ID":61046,"ELEMENT_SET_NO":999,"REV_AT_EPOCH":10190,"BSTAR":0.000065581849,"MEAN_MOTION_DOT":0.00001133,"MEAN_MOTION_DDOT":0},{"OBJECT_NAME":"SPACEMOBILE-001","OBJECT_ID":"2024-163C","EPOCH":"2026-07-14T14:29:16.219680","CLASSIFICATION_TYPE":"U","MEAN_MOTION":15.20740619,"ECCENTRICITY":0.00072574,"INCLINATION":52.9737,"RA_OF_ASC_NODE":183.0227,"ARG_OF_PERICENTER":191.6919,"MEAN_ANOMALY":168.3908,"EPHEMERIS_TYPE":0,"NORAD_CAT_ID":61047,"ELEMENT_SET_NO":999,"REV_AT_EPOCH":10193,"BSTAR":0.000021929994,"MEAN_MOTION_DOT":0.00000161,"MEAN_MOTION_DDOT":0},{"OBJECT_NAME":"SPACEMOBILE-002","OBJECT_ID":"2024-163D","EPOCH":"2026-07-14T23:33:52.252992","CLASSIFICATION_TYPE":"U","MEAN_MOTION":15.20783994,"ECCENTRICITY":0.00060318,"INCLINATION":52.9774,"RA_OF_ASC_NODE":181.3232,"ARG_OF_PERICENTER":191.1381,"MEAN_ANOMALY":168.9481,"EPHEMERIS_TYPE":0,"NORAD_CAT_ID":61048,"ELEMENT_SET_NO":999,"REV_AT_EPOCH":10199,"BSTAR":0.00019447481,"MEAN_MOTION_DOT":0.00004016,"MEAN_MOTION_DDOT":0},{"OBJECT_NAME":"SPACEMOBILE-004","OBJECT_ID":"2024-163E","EPOCH":"2026-07-12T09:38:01.727232","CLASSIFICATION_TYPE":"U","MEAN_MOTION":15.2079556,"ECCENTRICITY":0.0006853,"INCLINATION":52.9682,"RA_OF_ASC_NODE":192.9673,"ARG_OF_PERICENTER":216.7757,"MEAN_ANOMALY":143.2768,"EPHEMERIS_TYPE":0,"NORAD_CAT_ID":61049,"ELEMENT_SET_NO":999,"REV_AT_EPOCH":10160,"BSTAR":0.00058302,"MEAN_MOTION_DOT":0.00012717,"MEAN_MOTION_DDOT":0},{"OBJECT_NAME":"SPACEMOBILE-001 DEB","OBJECT_ID":"2024-163F","EPOCH":"2026-07-14T22:02:58.049088","CLASSIFICATION_TYPE":"U","MEAN_MOTION":15.35385449,"ECCENTRICITY":0.00057187,"INCLINATION":52.9932,"RA_OF_ASC_NODE":148.8231,"ARG_OF_PERICENTER":251.8602,"MEAN_ANOMALY":108.1777,"EPHEMERIS_TYPE":0,"NORAD_CAT_ID":62369,"ELEMENT_SET_NO":999,"REV_AT_EPOCH":9076,"BSTAR":0.00014768145,"MEAN_MOTION_DOT":0.00004772,"MEAN_MOTION_DDOT":0},{"OBJECT_NAME":"SPACEMOBILE-002 DEB","OBJECT_ID":"2024-163G","EPOCH":"2026-07-14T02:53:26.360736","CLASSIFICATION_TYPE":"U","MEAN_MOTION":15.43792576,"ECCENTRICITY":0.00045434,"INCLINATION":52.9418,"RA_OF_ASC_NODE":136.7687,"ARG_OF_PERICENTER":281.7902,"MEAN_ANOMALY":78.2592,"EPHEMERIS_TYPE":0,"NORAD_CAT_ID":62370,"ELEMENT_SET_NO":999,"REV_AT_EPOCH":10252,"BSTAR":0.00028811171,"MEAN_MOTION_DOT":0.00012852,"MEAN_MOTION_DDOT":0},{"OBJECT_NAME":"SPACEMOBILE-003 DEB","OBJECT_ID":"2024-163H","EPOCH":"2026-07-14T06:46:41.376576","CLASSIFICATION_TYPE":"U","MEAN_MOTION":15.41541404,"ECCENTRICITY":0.00054547,"INCLINATION":52.9689,"RA_OF_ASC_NODE":142.8815,"ARG_OF_PERICENTER":233.2707,"MEAN_ANOMALY":126.7796,"EPHEMERIS_TYPE":0,"NORAD_CAT_ID":62371,"ELEMENT_SET_NO":999,"REV_AT_EPOCH":9606,"BSTAR":0.00028684281,"MEAN_MOTION_DOT":0.00011842,"MEAN_MOTION_DDOT":0},{"OBJECT_NAME":"SPACEMOBILE-004 DEB","OBJECT_ID":"2024-163J","EPOCH":"2026-07-14T13:26:24.002592","CLASSIFICATION_TYPE":"U","MEAN_MOTION":15.40752876,"ECCENTRICITY":0.0002705,"INCLINATION":52.984,"RA_OF_ASC_NODE":141.2133,"ARG_OF_PERICENTER":261.7959,"MEAN_ANOMALY":98.2738,"EPHEMERIS_TYPE":0,"NORAD_CAT_ID":62372,"ELEMENT_SET_NO":999,"REV_AT_EPOCH":9917,"BSTAR":0.00019754,"MEAN_MOTION_DOT":0.00007807,"MEAN_MOTION_DDOT":0},{"OBJECT_NAME":"SPACEMOBILE-005 DEB","OBJECT_ID":"2024-163K","EPOCH":"2026-07-14T06:57:01.995552","CLASSIFICATION_TYPE":"U","MEAN_MOTION":15.34648192,"ECCENTRICITY":0.00056567,"INCLINATION":52.9736,"RA_OF_ASC_NODE":156.6764,"ARG_OF_PERICENTER":226.4718,"MEAN_ANOMALY":133.5812,"EPHEMERIS_TYPE":0,"NORAD_CAT_ID":62373,"ELEMENT_SET_NO":999,"REV_AT_EPOCH":10228,"BSTAR":0.00018863138,"MEAN_MOTION_DOT":0.00006052,"MEAN_MOTION_DDOT":0},{"OBJECT_NAME":"SPACEMOBILE-006","OBJECT_ID":"2025-309A","EPOCH":"2026-07-14T08:31:40.410912","CLASSIFICATION_TYPE":"U","MEAN_MOTION":15.18652187,"ECCENTRICITY":0.00101784,"INCLINATION":52.9935,"RA_OF_ASC_NODE":207.1822,"ARG_OF_PERICENTER":212.4448,"MEAN_ANOMALY":147.592,"EPHEMERIS_TYPE":0,"NORAD_CAT_ID":67232,"ELEMENT_SET_NO":999,"REV_AT_EPOCH":3072,"BSTAR":0.000042569365,"MEAN_MOTION_DOT":0.00000571,"MEAN_MOTION_DDOT":0},{"OBJECT_NAME":"SPACEMOBILE-008","OBJECT_ID":"2026-139A","EPOCH":"2026-07-14T13:23:52.309248","CLASSIFICATION_TYPE":"U","MEAN_MOTION":15.12801501,"ECCENTRICITY":0.000505,"INCLINATION":52.9947,"RA_OF_ASC_NODE":138.2992,"ARG_OF_PERICENTER":54.8997,"MEAN_ANOMALY":305.2467,"EPHEMERIS_TYPE":0,"NORAD_CAT_ID":69589,"ELEMENT_SET_NO":999,"REV_AT_EPOCH":412,"BSTAR":0.000012477,"MEAN_MOTION_DOT":-8e-7,"MEAN_MOTION_DDOT":0},{"OBJECT_NAME":"SPACEMOBILE-009","OBJECT_ID":"2026-139B","EPOCH":"2026-07-14T13:26:37.988160","CLASSIFICATION_TYPE":"U","MEAN_MOTION":15.12694817,"ECCENTRICITY":0.0005292,"INCLINATION":52.9938,"RA_OF_ASC_NODE":138.3056,"ARG_OF_PERICENTER":50.8296,"MEAN_ANOMALY":309.3164,"EPHEMERIS_TYPE":0,"NORAD_CAT_ID":69590,"ELEMENT_SET_NO":999,"REV_AT_EPOCH":412,"BSTAR":0.000014846,"MEAN_MOTION_DOT":-3.9e-7,"MEAN_MOTION_DDOT":0},{"OBJECT_NAME":"SPACEMOBILE-010","OBJECT_ID":"2026-139C","EPOCH":"2026-07-14T13:31:00.865344","CLASSIFICATION_TYPE":"U","MEAN_MOTION":15.12526901,"ECCENTRICITY":0.000522,"INCLINATION":52.9945,"RA_OF_ASC_NODE":138.3273,"ARG_OF_PERICENTER":42.8328,"MEAN_ANOMALY":317.3069,"EPHEMERIS_TYPE":0,"NORAD_CAT_ID":69591,"ELEMENT_SET_NO":999,"REV_AT_EPOCH":413,"BSTAR":0.00002307,"MEAN_MOTION_DOT":0.00000106,"MEAN_MOTION_DDOT":0}]}
